{
    "links": {
        "self": "http://www.neowsapp.com/rest/v1/neo/3560548?api_key=iIulBulltgU6a56xZRHN4H3l9WmuAYTsLGpBGhQ2"
    },
    "id": "3560548",
    "neo_reference_id": "3560548",
    "name": "(2011 FQ21)",
    "designation": "2011 FQ21",
    "nasa_jpl_url": "http://ssd.jpl.nasa.gov/sbdb.cgi?sstr=3560548",
    "absolute_magnitude_h": 28.2,
    "estimated_diameter": {
        "kilometers": {
            "estimated_diameter_min": 0.0060891262,
            "estimated_diameter_max": 0.0136157002
        },
        "meters": {
            "estimated_diameter_min": 6.0891262211,
            "estimated_diameter_max": 13.6157001539
        },
        "miles": {
            "estimated_diameter_min": 0.0037836064,
            "estimated_diameter_max": 0.0084604012
        },
        "feet": {
            "estimated_diameter_min": 19.9774488711,
            "estimated_diameter_max": 44.6709336928
        }
    },
    "is_potentially_hazardous_asteroid": false,
    "close_approach_data": [
        {
            "close_approach_date": "2010-10-24",
            "close_approach_date_full": "2010-Oct-24 04:32",
            "epoch_date_close_approach": 1287894720000,
            "relative_velocity": {
                "kilometers_per_second": "5.1995166648",
                "kilometers_per_hour": "18718.2599933616",
                "miles_per_hour": "11630.7988275418"
            },
            "miss_distance": {
                "astronomical": "0.3615540525",
                "lunar": "140.6445264225",
                "kilometers": "54087716.143868175",
                "miles": "33608548.362703815"
            },
            "orbiting_body": "Earth"
        },
        {
            "close_approach_date": "2011-03-23",
            "close_approach_date_full": "2011-Mar-23 02:32",
            "epoch_date_close_approach": 1300847520000,
            "relative_velocity": {
                "kilometers_per_second": "7.4919434136",
                "kilometers_per_hour": "26970.9962888983",
                "miles_per_hour": "16758.7282218435"
            },
            "miss_distance": {
                "astronomical": "0.003952511",
                "lunar": "1.537526779",
                "kilometers": "591287.22675157",
                "miles": "367408.845728866"
            },
            "orbiting_body": "Earth"
        },
        {
            "close_approach_date": "2011-03-23",
            "close_approach_date_full": "2011-Mar-23 12:16",
            "epoch_date_close_approach": 1300882560000,
            "relative_velocity": {
                "kilometers_per_second": "8.0206827209",
                "kilometers_per_hour": "28874.4577952147",
                "miles_per_hour": "17941.4651783655"
            },
            "miss_distance": {
                "astronomical": "0.0036264041",
                "lunar": "1.4106711949",
                "kilometers": "542502.329119267",
                "miles": "337095.3159972046"
            },
            "orbiting_body": "Moon"
        }
    ],
    "orbital_data": {
        "orbit_id": "7",
        "orbit_determination_date": "2017-04-06 08:53:59",
        "first_observation_date": "2011-03-28",
        "last_observation_date": "2011-03-30",
        "data_arc_in_days": 2,
        "observations_used": 10,
        "orbit_uncertainty": "8",
        "minimum_orbit_intersection": ".00397974",
        "jupiter_tisserand_invariant": "4.917",
        "epoch_osculation": "2455648.5",
        "eccentricity": ".3195340683490652",
        "semi_major_axis": "1.311442291740781",
        "inclination": "3.365254556169717",
        "ascending_node_longitude": "185.7431971013825",
        "orbital_period": "548.557559196276",
        "perihelion_distance": ".8923918008558274",
        "perihelion_argument": "300.6241149588353",
        "aphelion_distance": "1.730492782625734",
        "perihelion_time": "2455598.880054771415",
        "mean_anomaly": "32.56391236037837",
        "mean_motion": ".6562665922012947",
        "equinox": "J2000",
        "orbit_class": {
            "orbit_class_type": "APO",
            "orbit_class_description": "Near-Earth asteroid orbits which cross the Earth’s orbit similar to that of 1862 Apollo",
            "orbit_class_range": "a (semi-major axis) > 1.0 AU; q (perihelion) < 1.017 AU"
        }
    },
    "is_sentry_object": false
}